{"type": "FeatureCollection", "features": [ {"type": "Feature", "properties": {"norad_id": 42741, "name": "EUTELSAT 172B", "group": "eutelsat", "lat": -0.009366365449453013, "lon": 21.36763336981095, "alt_km": 35787.03057487202, "timestamp": "2025-12-24T07:45:05.870226+00:00", "meta": {"OBJECT_NAME": "EUTELSAT 172B", "OBJECT_ID": "2017-029B", "EPOCH": "2025-12-23T20:47:52.888704", "MEAN_MOTION": 1.00269764, "ECCENTRICITY": 2.513e-05, "INCLINATION": 0.0215, "RA_OF_ASC_NODE": 113.3929, "ARG_OF_PERICENTER": 20.3426, "MEAN_ANOMALY": 82.8905, "EPHEMERIS_TYPE": 0, "CLASSIFICATION_TYPE": "U", "NORAD_CAT_ID": 42741, "ELEMENT_SET_NO": 999, "REV_AT_EPOCH": 3197, "BSTAR": 0, "MEAN_MOTION_DOT": 1.5e-07, "MEAN_MOTION_DDOT": 0}, "tle": {"line1": "1 42741U 17029B   25357.86658436  .00000015  00000+0  00000+0 0  9999", "line2": "2 42741   0.0215 113.3929 0000251  20.3426  82.8905  1.00269764 31978"}}, "geometry": {"type": "Point", "coordinates": [21.36763336981095, -0.009366365449453013]}}, {"type": "Feature", "properties": {"norad_id": 44334, "name": "EUTELSAT 7C", "group": "eutelsat", "lat": 0.03734490895581781, "lon": -143.68121798085792, "alt_km": 35776.26143703264, "timestamp": "2025-12-24T07:45:05.870240+00:00", "meta": {"OBJECT_NAME": "EUTELSAT 7C", "OBJECT_ID": "2019-034B", "EPOCH": "2025-12-23T21:43:32.557152", "MEAN_MOTION": 1.00270668, "ECCENTRICITY": 0.0003137, "INCLINATION": 0.0727, "RA_OF_ASC_NODE": 178.4566, "ARG_OF_PERICENTER": 78.1721, "MEAN_ANOMALY": 168.9209, "EPHEMERIS_TYPE": 0, "CLASSIFICATION_TYPE": "U", "NORAD_CAT_ID": 44334, "ELEMENT_SET_NO": 999, "REV_AT_EPOCH": 507, "BSTAR": 0, "MEAN_MOTION_DOT": 6.9e-07, "MEAN_MOTION_DDOT": 0}, "tle": {"line1": "1 44334U 19034B   25357.90523793  .00000069  00000+0  00000+0 0  9998", "line2": "2 44334   0.0727 178.4566 0003137  78.1721 168.9209  1.00270668  5070"}}, "geometry": {"type": "Point", "coordinates": [-143.68121798085792, 0.03734490895581781]}}, {"type": "Feature", "properties": {"norad_id": 44624, "name": "EUTELSAT 5 WEST B", "group": "eutelsat", "lat": -0.04952714331125084, "lon": -155.66314383732347, "alt_km": 35781.20742688634, "timestamp": "2025-12-24T07:45:05.870257+00:00", "meta": {"OBJECT_NAME": "EUTELSAT 5 WEST B", "OBJECT_ID": "2019-067A", "EPOCH": "2025-12-23T21:40:02.892000", "MEAN_MOTION": 1.00271348, "ECCENTRICITY": 0.00030855, "INCLINATION": 0.0638, "RA_OF_ASC_NODE": 341.7317, "ARG_OF_PERICENTER": 290.1049, "MEAN_ANOMALY": 140.8638, "EPHEMERIS_TYPE": 0, "CLASSIFICATION_TYPE": "U", "NORAD_CAT_ID": 44624, "ELEMENT_SET_NO": 999, "REV_AT_EPOCH": 2267, "BSTAR": 0, "MEAN_MOTION_DOT": -2.1e-07, "MEAN_MOTION_DDOT": 0}, "tle": {"line1": "1 44624U 19067A   25357.90281125 -.00000021  00000+0  00000+0 0  9995", "line2": "2 44624   0.0638 341.7317 0003085 290.1049 140.8638  1.00271348 22679"}}, "geometry": {"type": "Point", "coordinates": [-155.66314383732347, -0.04952714331125084]}}, {"type": "Feature", "properties": {"norad_id": 45027, "name": "EUTELSAT KONNECT", "group": "eutelsat", "lat": 0.05267677141715328, "lon": -143.44350264532636, "alt_km": 35783.45511522212, "timestamp": "2025-12-24T07:45:05.870269+00:00", "meta": {"OBJECT_NAME": "EUTELSAT KONNECT", "OBJECT_ID": "2020-005B", "EPOCH": "2025-12-22T14:54:44.385984", "MEAN_MOTION": 1.00271247, "ECCENTRICITY": 0.00013494, "INCLINATION": 0.0714, "RA_OF_ASC_NODE": 94.3931, "ARG_OF_PERICENTER": 184.6433, "MEAN_ANOMALY": 43.2748, "EPHEMERIS_TYPE": 0, "CLASSIFICATION_TYPE": "U", "NORAD_CAT_ID": 45027, "ELEMENT_SET_NO": 999, "REV_AT_EPOCH": 2256, "BSTAR": 0, "MEAN_MOTION_DOT": 7.1e-07, "MEAN_MOTION_DDOT": 0}, "tle": {"line1": "1 45027U 20005B   25356.62134706  .00000071  00000+0  00000+0 0  9991", "line2": "2 45027   0.0714  94.3931 0001349 184.6433  43.2748  1.00271247 22564"}}, "geometry": {"type": "Point", "coordinates": [-143.44350264532636, 0.05267677141715328]}}, {"type": "Feature", "properties": {"norad_id": 49056, "name": "EUTELSAT QUANTUM", "group": "eutelsat", "lat": -0.030548445260955258, "lon": -102.94553782691058, "alt_km": 35773.21003517004, "timestamp": "2025-12-24T07:45:05.870280+00:00", "meta": {"OBJECT_NAME": "EUTELSAT QUANTUM", "OBJECT_ID": "2021-069B", "EPOCH": "2025-12-23T21:55:08.946336", "MEAN_MOTION": 1.00270689, "ECCENTRICITY": 0.00034109, "INCLINATION": 0.0103, "RA_OF_ASC_NODE": 9.2533, "ARG_OF_PERICENTER": 272.4115, "MEAN_ANOMALY": 187.5229, "EPHEMERIS_TYPE": 0, "CLASSIFICATION_TYPE": "U", "NORAD_CAT_ID": 49056, "ELEMENT_SET_NO": 999, "REV_AT_EPOCH": 1617, "BSTAR": 0, "MEAN_MOTION_DOT": 1.47e-06, "MEAN_MOTION_DDOT": 0}, "tle": {"line1": "1 49056U 21069B   25357.91329799  .00000147  00000+0  00000+0 0  9993", "line2": "2 49056   0.0103   9.2533 0003410 272.4115 187.5229  1.00270689 16174"}}, "geometry": {"type": "Point", "coordinates": [-102.94553782691058, -0.030548445260955258]}}, {"type": "Feature", "properties": {"norad_id": 53765, "name": "EUTELSAT KONNECT VHTS", "group": "eutelsat", "lat": 0.04935960076298932, "lon": -147.9337671932189, "alt_km": 35778.686552994855, "timestamp": "2025-12-24T07:45:05.870292+00:00", "meta": {"OBJECT_NAME": "EUTELSAT KONNECT VHTS", "OBJECT_ID": "2022-110A", "EPOCH": "2025-12-22T14:53:22.017408", "MEAN_MOTION": 1.00268229, "ECCENTRICITY": 0.00023717, "INCLINATION": 0.0613, "RA_OF_ASC_NODE": 98.5283, "ARG_OF_PERICENTER": 147.5122, "MEAN_ANOMALY": 71.4567, "EPHEMERIS_TYPE": 0, "CLASSIFICATION_TYPE": "U", "NORAD_CAT_ID": 53765, "ELEMENT_SET_NO": 999, "REV_AT_EPOCH": 505, "BSTAR": 0, "MEAN_MOTION_DOT": 3.8e-07, "MEAN_MOTION_DDOT": 0}, "tle": {"line1": "1 53765U 22110A   25356.62039372  .00000038  00000+0  00000+0 0  9994", "line2": "2 53765   0.0613  98.5283 0002371 147.5122  71.4567  1.00268229  5058"}}, "geometry": {"type": "Point", "coordinates": [-147.9337671932189, 0.04935960076298932]}}, {"type": "Feature", "properties": {"norad_id": 54048, "name": "EUTELSAT HOTBIRD 13F", "group": "eutelsat", "lat": -0.05147837185351635, "lon": -137.64558529308965, "alt_km": 35793.354337218356, "timestamp": "2025-12-24T07:45:05.870304+00:00", "meta": {"OBJECT_NAME": "EUTELSAT HOTBIRD 13F", "OBJECT_ID": "2022-134A", "EPOCH": "2025-12-21T21:49:07.084128", "MEAN_MOTION": 1.00271763, "ECCENTRICITY": 0.00022808, "INCLINATION": 0.0525, "RA_OF_ASC_NODE": 292.4073, "ARG_OF_PERICENTER": 71.4737, "MEAN_ANOMALY": 67.1177, "EPHEMERIS_TYPE": 0, "CLASSIFICATION_TYPE": "U", "NORAD_CAT_ID": 54048, "ELEMENT_SET_NO": 999, "REV_AT_EPOCH": 1160, "BSTAR": 0, "MEAN_MOTION_DOT": 1.09e-06, "MEAN_MOTION_DDOT": 0}, "tle": {"line1": "1 54048U 22134A   25355.90910977  .00000109  00000+0  00000+0 0  9993", "line2": "2 54048   0.0525 292.4073 0002280  71.4737  67.1177  1.00271763 11607"}}, "geometry": {"type": "Point", "coordinates": [-137.64558529308965, -0.05147837185351635]}}, {"type": "Feature", "properties": {"norad_id": 54225, "name": "EUTELSAT HOTBIRD 13G", "group": "eutelsat", "lat": -0.02460748563398532, "lon": -137.51445909141802, "alt_km": 35778.94562059073, "timestamp": "2025-12-24T07:45:05.870315+00:00", "meta": {"OBJECT_NAME": "EUTELSAT HOTBIRD 13G", "OBJECT_ID": "2022-146A", "EPOCH": "2025-12-22T04:02:38.705856", "MEAN_MOTION": 1.00287196, "ECCENTRICITY": 6.245e-05, "INCLINATION": 0.0535, "RA_OF_ASC_NODE": 228.1743, "ARG_OF_PERICENTER": 347.6873, "MEAN_ANOMALY": 308.7697, "EPHEMERIS_TYPE": 0, "CLASSIFICATION_TYPE": "U", "NORAD_CAT_ID": 54225, "ELEMENT_SET_NO": 999, "REV_AT_EPOCH": 569, "BSTAR": 0, "MEAN_MOTION_DOT": 1.11e-06, "MEAN_MOTION_DDOT": 0}, "tle": {"line1": "1 54225U 22146A   25356.16850354  .00000111  00000+0  00000+0 0  9997", "line2": "2 54225   0.0535 228.1743 0000624 347.6873 308.7697  1.00287196  5694"}}, "geometry": {"type": "Point", "coordinates": [-137.51445909141802, -0.02460748563398532]}}, {"type": "Feature", "properties": {"norad_id": 54259, "name": "EUTELSAT 10B", "group": "eutelsat", "lat": 0.03629874192441416, "lon": -140.6085488163234, "alt_km": 35789.10142134535, "timestamp": "2025-12-24T07:45:05.870327+00:00", "meta": {"OBJECT_NAME": "EUTELSAT 10B", "OBJECT_ID": "2022-157A", "EPOCH": "2025-12-23T21:44:24.974304", "MEAN_MOTION": 1.00262718, "ECCENTRICITY": 6.581e-05, "INCLINATION": 0.0577, "RA_OF_ASC_NODE": 95.7572, "ARG_OF_PERICENTER": 23.1364, "MEAN_ANOMALY": 309.9287, "EPHEMERIS_TYPE": 0, "CLASSIFICATION_TYPE": "U", "NORAD_CAT_ID": 54259, "ELEMENT_SET_NO": 999, "REV_AT_EPOCH": 1126, "BSTAR": 0, "MEAN_MOTION_DOT": 8.8e-07, "MEAN_MOTION_DDOT": 0}, "tle": {"line1": "1 54259U 22157A   25357.90584461  .00000088  00000+0  00000+0 0  9995", "line2": "2 54259   0.0577  95.7572 0000658  23.1364 309.9287  1.00262718 11264"}}, "geometry": {"type": "Point", "coordinates": [-140.6085488163234, 0.03629874192441416]}}, {"type": "Feature", "properties": {"norad_id": 59346, "name": "EUTELSAT 36D", "group": "eutelsat", "lat": -0.023752249615992628, "lon": -114.76185617938394, "alt_km": 35786.460124633115, "timestamp": "2025-12-24T07:45:05.870339+00:00", "meta": {"OBJECT_NAME": "EUTELSAT 36D", "OBJECT_ID": "2024-059A", "EPOCH": "2025-12-23T21:51:46.767744", "MEAN_MOTION": 1.00272873, "ECCENTRICITY": 3.465e-05, "INCLINATION": 0.0187, "RA_OF_ASC_NODE": 38.1488, "ARG_OF_PERICENTER": 327.4077, "MEAN_ANOMALY": 90.954, "EPHEMERIS_TYPE": 0, "CLASSIFICATION_TYPE": "U", "NORAD_CAT_ID": 59346, "ELEMENT_SET_NO": 999, "REV_AT_EPOCH": 639, "BSTAR": 0, "MEAN_MOTION_DOT": 1.77e-06, "MEAN_MOTION_DDOT": 0}, "tle": {"line1": "1 59346U 24059A   25357.91095796  .00000177  00000+0  00000+0 0  9998", "line2": "2 59346   0.0187  38.1488 0000346 327.4077  90.9540  1.00272873  6395"}}, "geometry": {"type": "Point", "coordinates": [-114.76185617938394, -0.023752249615992628]}}]}